$$SOE
2460721.500000000, A.D. 2025-Feb-15 00:00:00.0000, 1.218043123336582E+08, 2.866910838326108E+08, 4.421114172076261E+07,
2460728.500000000, A.D. 2025-Feb-22 00:00:00.0000, 1.097565441363833E+08, 2.915231412732207E+08, 4.413741388035581E+07,
2460735.500000000, A.D. 2025-Mar-01 00:00:00.0000, 9.753770017851993E+07, 2.959009425514452E+08, 4.399486982554139E+07,
2460742.500000000, A.D. 2025-Mar-08 00:00:00.0000, 8.516688922266118E+07, 2.998178508237706E+08, 4.378375831033742E+07,
2460749.500000000, A.D. 2025-Mar-15 00:00:00.0000, 7.266349989697947E+07, 3.032681548215398E+08, 4.350446413599813E+07,
2460756.500000000, A.D. 2025-Mar-22 00:00:00.0000, 6.004714250665866E+07, 3.062470828193584E+08, 4.315750691256879E+07,
2460763.500000000, A.D. 2025-Mar-29 00:00:00.0000, 4.733759153670604E+07, 3.087508101705506E+08, 4.274353892929815E+07,
2460770.500000000, A.D. 2025-Apr-05 00:00:00.0000, 3.455472956281879E+07, 3.107764635326533E+08, 4.226334238104579E+07,
2460777.500000000, A.D. 2025-Apr-12 00:00:00.0000, 2.171849103158875E+07, 3.123221218966962E+08, 4.171782615786017E+07,
2460784.500000000, A.D. 2025-Apr-19 00:00:00.0000, 8.848806097783703E+06, 3.133868135896776E+08, 4.110802217056519E+07,
2460791.500000000, A.D. 2025-Apr-26 00:00:00.0000, -4.034454845125208E+06, 3.139705091400783E+08, 4.043508120380944E+07,
2460798.500000000, A.D. 2025-May-03 00:00:00.0000, -1.691153547794427E+07, 3.140741101554686E+08, 3.970026832466149E+07,
2460805.500000000, A.D. 2025-May-10 00:00:00.0000, -2.976284635392064E+07, 3.136994343843014E+08, 3.890495788505708E+07,
2460812.500000000, A.D. 2025-May-17 00:00:00.0000, -4.256901583937766E+07, 3.128491971146265E+08, 3.805062815428090E+07,
2460819.500000000, A.D. 2025-May-24 00:00:00.0000, -5.531093874405157E+07, 3.115269890757672E+08, 3.713885560605016E+07,
2460826.500000000, A.D. 2025-May-31 00:00:00.0000, -6.796982197496268E+07, 3.097372513979696E+08, 3.617130889383158E+07,
2460833.500000000, A.D. 2025-Jun-07 00:00:00.0000, -8.052722739910118E+07, 3.074852491017833E+08, 3.514974269743830E+07,
2460840.500000000, A.D. 2025-Jun-14 00:00:00.0000, -9.296511409135655E+07, 3.047770427348730E+08, 3.407599165071642E+07,
2460847.500000000, A.D. 2025-Jun-21 00:00:00.0000, -1.052658785921530E+08, 3.016194551646517E+08, 3.295196401623565E+07,
2460854.500000000, A.D. 2025-Jun-28 00:00:00.0000, -1.174123899366076E+08, 2.980200355797238E+08, 3.177963501023062E+07,
2460861.500000000, A.D. 2025-Jul-05 00:00:00.0000, -1.293880208923320E+08, 2.939870231674420E+08, 3.056104013897309E+07,
2460868.500000000, A.D. 2025-Jul-12 00:00:00.0000, -1.411766765398942E+08, 2.895293099634911E+08, 2.929826863170615E+07,
2460875.500000000, A.D. 2025-Jul-19 00:00:00.0000, -1.527628199834500E+08, 2.846564025887857E+08, 2.799345694489750E+07,
2460882.500000000, A.D. 2025-Jul-26 00:00:00.0000, -1.641314949899812E+08, 2.793783831017482E+08, 2.664878235082655E+07,
2460889.500000000, A.D. 2025-Aug-02 00:00:00.0000, -1.752683455271208E+08, 2.737058692630371E+08, 2.526645664030570E+07,
2460896.500000000, A.D. 2025-Aug-09 00:00:00.0000, -1.861596322359866E+08, 2.676499744607802E+08, 2.384871996707033E+07,
2460903.500000000, A.D. 2025-Aug-16 00:00:00.0000, -1.967922458439850E+08, 2.612222674805901E+08, 2.239783484921719E+07,
2460910.500000000, A.D. 2025-Aug-23 00:00:00.0000, -2.071537173264155E+08, 2.544347323671782E+08, 2.091608032650113E+07,
2460917.500000000, A.D. 2025-Aug-30 00:00:00.0000, -2.172322246071797E+08, 2.472997293033673E+08, 1.940574632270844E+07,
2460924.500000000, A.D. 2025-Sep-06 00:00:00.0000, -2.270165973536008E+08, 2.398299577015688E+08, 1.786912844276257E+07,
2460931.500000000, A.D. 2025-Sep-13 00:00:00.0000, -2.364963216843985E+08, 2.320384192059866E+08, 1.630852316924761E+07,
2460938.500000000, A.D. 2025-Sep-20 00:00:00.0000, -2.456615416642502E+08, 2.239383791170474E+08, 1.472622303460468E+07,
2460945.500000000, A.D. 2025-Sep-27 00:00:00.0000, -2.545030566844371E+08, 2.155433294773363E+08, 1.312451193442218E+07,
2460952.500000000, A.D. 2025-Oct-04 00:00:00.0000, -2.630123169168403E+08, 2.068669544791728E+08, 1.150566081595853E+07,
2460959.500000000, A.D. 2025-Oct-11 00:00:00.0000, -2.711814173757015E+08, 1.979230973549768E+08, 9.871923701060131E+06,
2460966.500000000, A.D. 2025-Oct-18 00:00:00.0000, -2.790030904579376E+08, 1.887257285508697E+08, 8.225533995149985E+06,
2460973.500000000, A.D. 2025-Oct-25 00:00:00.0000, -2.864706969810666E+08, 1.792889152455175E+08, 6.568701069438025E+06,
2460980.500000000, A.D. 2025-Nov-01 00:00:00.0000, -2.935782158455766E+08, 1.696267922664521E+08, 4.903607111752480E+06,
2460987.500000000, A.D. 2025-Nov-08 00:00:00.0000, -3.003202324563468E+08, 1.597535344027216E+08, 3.232404235843435E+06,
2460994.500000000, A.D. 2025-Nov-15 00:00:00.0000, -3.066919259175024E+08, 1.496833300794605E+08, 1.557211823859163E+06,
2461001.500000000, A.D. 2025-Nov-22 00:00:00.0000, -3.126890547472487E+08, 1.394303566271335E+08, -1.198859258107096E+05,
2461008.500000000, A.D. 2025-Nov-29 00:00:00.0000, -3.183079414031809E+08, 1.290087582776426E+08, -1.796842148394868E+06,
2461015.500000000, A.D. 2025-Dec-06 00:00:00.0000, -3.235454580267741E+08, 1.184326267346281E+08, -3.471648973189771E+06,
2461022.500000000, A.D. 2025-Dec-13 00:00:00.0000, -3.283990130999559E+08, 1.077159809240903E+08, -5.142339021236926E+06,
2461029.500000000, A.D. 2025-Dec-20 00:00:00.0000, -3.328665356316209E+08, 9.687274691781351E+07, -6.806986987961110E+06,
2461036.500000000, A.D. 2025-Dec-27 00:00:00.0000, -3.369464580479147E+08, 8.591674057608956E+07, -8.463711011040282E+06,
2461043.500000000, A.D. 2026-Jan-03 00:00:00.0000, -3.406376993479254E+08, 7.486165224434008E+07, -1.011067375181490E+07,
2461050.500000000, A.D. 2026-Jan-10 00:00:00.0000, -3.439396485110183E+08, 6.372103277679786E+07, -1.174608326811178E+07,
2461057.500000000, A.D. 2026-Jan-17 00:00:00.0000, -3.468521480066356E+08, 5.250828074452066E+07, -1.336819371906314E+07,
2461064.500000000, A.D. 2026-Jan-24 00:00:00.0000, -3.493754774029349E+08, 4.123663079470199E+07, -1.497530591867308E+07,
2461071.500000000, A.D. 2026-Jan-31 00:00:00.0000, -3.515103371181701E+08, 2.991914309563019E+07, -1.656576775224363E+07,
2461078.500000000, A.D. 2026-Feb-07 00:00:00.0000, -3.532578323138779E+08, 1.856869375048276E+07, -1.813797447717425E+07,
2461085.500000000, A.D. 2026-Feb-14 00:00:00.0000, -3.546194567305357E+08, 7.197966104641430E+06, -1.969036894351860E+07,
2461092.500000000, A.D. 2026-Feb-21 00:00:00.0000, -3.555970761248836E+08, -4.180556536622257E+06, -2.122144173322834E+07,
2461099.500000000, A.D. 2026-Feb-28 00:00:00.0000, -3.561929124339106E+08, -1.555459568714076E+07, -2.272973103450311E+07,
2461106.500000000, A.D. 2026-Mar-07 00:00:00.0000, -3.564095307606586E+08, -2.691208196636114E+07, -2.421382223208614E+07,
2461113.500000000, A.D. 2026-Mar-14 00:00:00.0000, -3.562498264402801E+08, -3.824116128374451E+07, -2.567234766903488E+07,
2461120.500000000, A.D. 2026-Mar-21 00:00:00.0000, -3.557170104273239E+08, -4.953020007562680E+07, -2.710398651527619E+07,
2461127.500000000, A.D. 2026-Mar-28 00:00:00.0000, -3.548145950260828E+08, -6.076778861933132E+07, -2.850746448141848E+07,
2461134.500000000, A.D. 2026-Apr-04 00:00:00.0000, -3.535463805783440E+08, -7.194274344663057E+07, -2.988155340829554E+07,
2461141.500000000, A.D. 2026-Apr-11 00:00:00.0000, -3.519164428457224E+08, -8.304410927136371E+07, -3.122507079388746E+07,
2461148.500000000, A.D. 2026-Apr-18 00:00:00.0000, -3.499291209352806E+08, -9.406116048999660E+07, -3.253687927922449E+07,
2461155.500000000, A.D. 2026-Apr-25 00:00:00.0000, -3.475890057275151E+08, -1.049834022910855E+08, -3.381588610233637E+07,
2461162.500000000, A.D. 2026-May-02 00:00:00.0000, -3.449009287795435E+08, -1.158005714519572E+08, -3.506104253165323E+07,
2461169.500000000, A.D. 2026-May-09 00:00:00.0000, -3.418699515810509E+08, -1.265026369342842E+08, -3.627134330191586E+07,
2461176.500000000, A.D. 2026-May-16 00:00:00.0000, -3.385013547847961E+08, -1.370798001819964E+08, -3.744582608185309E+07,
2461183.500000000, A.D. 2026-May-23 00:00:00.0000, -3.348006273561539E+08, -1.475224941377443E+08, -3.858357090007534E+07,
2461190.500000000, A.D. 2026-May-30 00:00:00.0000, -3.307734577130095E+08, -1.578213806952597E+08, -3.968369931712536E+07,
2461197.500000000, A.D. 2026-Jun-06 00:00:00.0000, -3.264257271658931E+08, -1.679673498982103E+08, -4.074537358701978E+07,
2461204.500000000, A.D. 2026-Jun-13 00:00:00.0000, -3.217635019869040E+08, -1.779515207216162E+08, -4.176779613336920E+07,
2461211.500000000, A.D. 2026-Jun-20 00:00:00.0000, -3.167930246006294E+08, -1.877652405393243E+08, -4.275020905897408E+07,
2461218.500000000, A.D. 2026-Jun-27 00:00:00.0000, -3.115207055829293E+08, -1.974000836432632E+08, -4.369189356351555E+07,
2461225.500000000, A.D. 2026-Jul-04 00:00:00.0000, -3.059531164527023E+08, -2.068478496141732E+08, -4.459216933467859E+07,
2461232.500000000, A.D. 2026-Jul-11 00:00:00.0000, -3.000969829868587E+08, -2.161005616997402E+08, -4.545039394843256E+07,
2461239.500000000, A.D. 2026-Jul-18 00:00:00.0000, -2.939591789486594E+08, -2.251504651977974E+08, -4.626596228607081E+07,
2461246.500000000, A.D. 2026-Jul-25 00:00:00.0000, -2.875467201873494E+08, -2.339900258664645E+08, -4.703830597154298E+07,
2461253.500000000, A.D. 2026-Aug-01 00:00:00.0000, -2.808667590459338E+08, -2.426119284353535E+08, -4.776689284023255E+07,
2461260.500000000, A.D. 2026-Aug-08 00:00:00.0000, -2.739265788510388E+08, -2.510090752782641E+08, -4.845122646555148E+07,
2461267.500000000, A.D. 2026-Aug-15 00:00:00.0000, -2.667335880602151E+08, -2.591745848172628E+08, -4.909084574790771E+07,
2461274.500000000, A.D. 2026-Aug-22 00:00:00.0000, -2.592953148162303E+08, -2.671017884526213E+08, -4.968532439836290E+07,
2461281.500000000, A.D. 2026-Aug-29 00:00:00.0000, -2.516194041826198E+08, -2.747842274050593E+08, -5.023427022008646E+07,
2461288.500000000, A.D. 2026-Sep-05 00:00:00.0000, -2.437136159114529E+08, -2.822156523534779E+08, -5.073732461869685E+07,
$$EOE